[{"OBJECT_NAME":"STARLINK-34203","OBJECT_ID":"2025-119P","EPOCH":"2026-03-09T01:22:19.202880","MEAN_MOTION":15.276615,"ECCENTRICITY":0.00026261,"INCLINATION":43.0031,"RA_OF_ASC_NODE":310.5368,"ARG_OF_PERICENTER":280.0912,"MEAN_ANOMALY":79.9644,"EPHEMERIS_TYPE":0,"CLASSIFICATION_TYPE":"U","NORAD_CAT_ID":64246,"ELEMENT_SET_NO":999,"REV_AT_EPOCH":4408,"BSTAR":0.0025130672,"MEAN_MOTION_DOT":0.00069725,"MEAN_MOTION_DDOT":0},{"OBJECT_NAME":"OBJECT BD","OBJECT_ID":"2025-313BD","EPOCH":"2026-03-09T15:06:44.992224","MEAN_MOTION":15.3000236,"ECCENTRICITY":0.00072867,"INCLINATION":97.397,"RA_OF_ASC_NODE":145.285,"ARG_OF_PERICENTER":333.4514,"MEAN_ANOMALY":26.6352,"EPHEMERIS_TYPE":0,"CLASSIFICATION_TYPE":"U","NORAD_CAT_ID":67299,"ELEMENT_SET_NO":999,"REV_AT_EPOCH":1083,"BSTAR":0.0027633805,"MEAN_MOTION_DOT":0.0008101,"MEAN_MOTION_DDOT":0}]
